OBJECT_NAME,OBJECT_ID,EPOCH,MEAN_MOTION,ECCENTRICITY,INCLINATION,RA_OF_ASC_NODE,ARG_OF_PERICENTER,MEAN_ANOMALY,EPHEMERIS_TYPE,CLASSIFICATION_TYPE,NORAD_CAT_ID,ELEMENT_SET_NO,REV_AT_EPOCH,BSTAR,MEAN_MOTION_DOT,MEAN_MOTION_DDOT
STARLINK-6219,2023-083S,2026-07-10T23:53:37.273920,15.27578876,.000133,43.0019,112.6457,243.5242,116.5474,0,U,56892,999,17044,-.40584E-4,-.1379E-4,0
STARLINK-6216,2023-083T,2026-07-11T03:30:11.134944,15.27573471,.0001175,43.0035,107.7893,259.0525,101.0195,0,U,56893,999,17063,-.13447E-4,-.632E-5,0
STARLINK-6144,2023-083U,2026-07-10T23:11:03.460128,15.27590392,.0001408,43.0021,112.4299,255.7483,104.3212,0,U,56894,999,17056,.15027E-4,.151E-5,0
STARLINK-6208,2023-083V,2026-07-10T22:13:56.271072,15.27570922,.000126,43.0023,112.9890,291.6776,68.3941,0,U,56895,999,17043,.19954E-4,.287E-5,0
STARLINK-6202,2023-083W,2026-07-09T05:20:15.514656,15.27607549,.00012766,43.0023,122.5574,258.7323,101.3385,0,U,56896,999,17028,.17533527E-3,.457E-4,0
STARLINK-6200,2023-083X,2026-07-10T22:04:35.027904,15.27730781,.0003559,43.0043,112.9431,318.8979,41.1604,0,U,56897,999,17054,-.16477E-3,-.4816E-4,0
STARLINK-6205,2023-083Y,2026-07-11T02:44:52.560672,15.27560374,.0001049,43.0033,104.9928,241.2586,118.8161,0,U,56898,999,17065,-.3826E-5,-.367E-5,0
STARLINK-6203,2023-083Z,2026-07-11T03:14:14.680032,15.27587375,.0001208,43.0038,104.2998,286.9211,73.1508,0,U,56899,999,17065,-.56464E-5,-.418E-5,0
STARLINK-6207,2023-083AA,2026-07-11T01:40:19.393824,15.27583659,.0001422,43.0034,94.2369,265.3709,94.6981,0,U,56900,999,17063,.65625E-4,.1544E-4,0
STARLINK-6185,2023-083AB,2026-07-10T23:25:25.759776,15.27584561,.0001327,43.0021,105.6797,269.2662,90.8038,0,U,56901,999,17063,.34014E-4,.674E-5,0
STARLINK-6195,2023-083AC,2026-07-11T01:44:00.811968,15.27584402,.0002142,43.0041,94.2484,247.4415,112.6211,0,U,56902,999,17077,.65529E-4,.1541E-4,0
STARLINK-6192,2023-083AD,2026-07-11T03:29:02.779584,15.27574834,.0001546,43.0046,104.3693,273.4043,86.6632,0,U,56903,999,17066,.67306E-5,-.77E-6,0
STARLINK-6193,2023-083AE,2026-07-10T22:06:06.104736,15.27571085,.0001365,43.0045,94.8341,269.6857,90.3839,0,U,56904,999,17064,-.60438E-5,-.428E-5,0
STARLINK-6183,2023-083AF,2026-07-11T03:30:55.154880,15.27583093,.0001289,43.0024,93.0991,253.0977,106.9733,0,U,56905,999,17068,.43117E-5,-.143E-5,0
STARLINK-6098,2023-083AG,2026-07-11T03:42:01.454400,15.27583808,.0001378,43.0000,93.1519,347.7729,12.3089,0,U,56906,999,17068,.45054E-5,-.138E-5,0
STARLINK-6110,2023-083AH,2026-07-11T02:02:18.758976,15.27584374,.0001354,43.0025,93.4929,254.0599,106.0103,0,U,56907,999,17078,.21098E-4,.319E-5,0
STARLINK-6186,2023-083AJ,2026-07-11T02:28:13.528704,15.27578560,.0001661,43.0041,93.6198,265.6360,94.4302,0,U,56908,999,17067,.8508E-4,.208E-4,0
STARLINK-5999,2023-083AK,2026-07-09T04:19:02.960832,15.27567352,.00013404,43.0024,104.9880,264.7159,95.3540,0,U,56909,999,17048,.54050743E-4,.1225E-4,0
STARLINK-6179,2023-083AL,2026-07-11T02:39:19.143072,15.27571222,.0001454,43.0052,93.6794,263.6651,96.4035,0,U,56910,999,17066,-.36464E-5,-.363E-5,0
STARLINK-6116,2023-083AM,2026-07-10T15:18:00.946080,15.27575320,.0000907,43.0020,96.1438,253.4306,106.6446,0,U,56911,999,17060,-.34301E-5,-.356E-5,0
STARLINK-5805,2023-083AN,2026-07-10T22:11:38.741280,15.27578365,.0001584,43.0048,94.8635,275.9412,84.1259,0,U,56912,999,17064,.86381E-5,-.25E-6,0
STARLINK-5950,2023-083AP,2026-07-10T23:14:20.796000,15.27584754,.0000996,43.0023,94.3290,261.8232,98.2507,0,U,56913,999,17065,-.47174E-4,-.156E-4,0
STARLINK-5961,2023-083AQ,2026-07-11T01:54:54.713088,15.27583702,.0001006,43.0047,93.4448,294.3014,65.7732,0,U,56914,999,17067,.11493E-4,.54E-6,0
STARLINK-5965,2023-083AR,2026-07-11T02:33:47.448288,15.27570627,.0001162,43.0039,93.6476,251.6983,108.3742,0,U,56915,999,17067,.96492E-5,.3E-7,0
STARLINK-5973,2023-083AS,2026-07-10T02:59:33.908064,15.27588959,.00017165,43.0046,99.1729,263.4593,96.6063,0,U,56916,999,17049,.27309907E-4,.489E-5,0
STARLINK-5971,2023-083AT,2026-07-10T22:17:11.883264,15.27580231,.0002831,43.0051,94.8924,291.0273,69.0276,0,U,56917,999,17064,.34803E-5,-.167E-5,0
STARLINK-5951,2023-083AU,2026-07-09T03:10:33.478752,15.27580439,.00012199,43.0022,104.6227,266.1459,93.9253,0,U,56918,999,17037,.97129E-5,.5E-7,0
STARLINK-5966,2023-083AV,2026-07-11T02:00:27.704736,15.27576743,.0000693,43.0006,93.4746,295.6343,64.4437,0,U,56919,999,17067,-.33952E-4,-.1196E-4,0
STARLINK-5960,2023-083AW,2026-07-10T23:18:03.026304,15.27587569,.0001111,43.0039,94.3409,262.2336,97.8390,0,U,56920,999,17065,.2643E-4,.465E-5,0
STARLINK-5958,2023-083AX,2026-07-11T03:40:10.284384,15.27580293,.0000944,43.0020,93.1309,285.1149,74.9598,0,U,56921,999,17068,-.14046E-5,-.301E-5,0
